NAYIF-1 (EO-88)         
1 42017U 17008BX  20085.17792478  .00001452  00000-0  58850-4 0  9992
2 42017  97.3679 153.9482 0004588 254.9677 105.1054 15.26250201172699
MAX VALIER SAT          
1 42778U 17036P   20085.87589165  .00000828  00000-0  38699-4 0  9996
2 42778  97.3155 141.7827 0010976 322.7435  37.3039 15.22466685153019
RADFXSAT (FOX-1B)       
1 43017U 17073E   20085.76209807  .00000697  00000-0  60055-4 0  9999
2 43017  97.7258   1.2163 0256469 323.3252  35.0640 14.78854903126792
FOX-1D (AO-92)          
1 43137U 18004AC  20086.16556827  .00000943  00000-0  41929-4 0  9992
2 43137  97.4528 157.8692 0008945 359.2412   0.8810 15.23958445122351
ES'HAIL 2               
1 43700U 18090A   20085.76646528  .00000139  00000-0  00000+0 0  9993
2 43700   0.0200 217.1006 0002259 179.8100  88.5020  1.00274074  5114
FOX-1CLIFF (AO-95)      
1 43770U 18099N   20085.77570300 -.00000080  00000-0 -21213-5 0  9996
2 43770  97.7126 158.5896 0016010 114.4490 245.8403 14.94934862 71417
ITASAT 1                
1 43786U 18099AE  20085.79180495  .00000026  00000-0  75983-5 0  9998
2 43786  97.7138 158.9649 0016635 109.0602 251.2422 14.95279583 71432
JY1SAT (JO-97)          
1 43803U 18099AX  20086.21739113  .00000760  00000-0  73733-4 0  9998
2 43803  97.7100 159.2232 0016788 108.1498 252.1553 14.95447474 71492
PSAT2 (NO-104)          
1 44354U 19036R   20086.37752848  .00012905  00000-0  19191-3 0  9990
2 44354  28.5295 205.6467 0370988 144.6030 217.9784 15.01786883 41309
BRICSAT2 (NO-103)       
1 44355U 19036S   20085.45607695  .00023833  00000-0  34618-3 0  9991
2 44355  28.5295 206.9458 0355712 142.4880 220.1094 15.05611991 41212
JAISAT-1                
1 44419U 19038F   20086.34110898  .00000920  00000-0  56063-4 0  9998
2 44419  97.5296  48.9671 0023161  59.3136 301.0373 15.12638261 40036
DUCHIFAT-3              
1 44854U 19089C   20086.43260561  .00000450  00000-0  42884-4 0  9994
2 44854  36.9662 228.9678 0006712 105.4128 254.7360 14.99004026 15837
HUSKYSAT-1              
1 45119U 19071J   20085.45725512  .00001630  00000-0  61461-4 0  9996
2 45119  51.6434  49.1111 0012963 110.0205 250.2173 15.33259626  8237
